380P/PANSTARRS,e,8.0174,129.0830,87.5188,4.412255,0.1063441,0.34125013,172.1192,10/10.0/2023,2000,g 12.5,4.0
# From MPEC 2021-J28
381P/LINEAR-Spacewatch,e,28.3715,173.2753,173.8302,7.140948,0.0516500,0.68150356,76.1354,10/10.0/2023,2000,g 17.5,2.0
# From MPEC 2022-Y15
382P/Larson,e,8.3378,173.0157,163.4353,6.031846,0.0665317,0.27701243,44.6331,10/10.0/2023,2000,g  8.0,4.0
# From MPEC 2022-OB6
383P/Christensen,e,12.3219,207.8483,133.7639,3.547500,0.1475096,0.59909343,213.0659,10/10.0/2023,2000,g 18.0,4.0
# From MPEC 2022-OB6
384P/Kowalski,e,7.2831,354.2105,37.6815,2.899072,0.1996712,0.61630902,291.0883,10/10.0/2023,2000,g 19.5,4.0
# From MPEC 2021-F20
385P/Hill,e,16.8322,357.0800,44.3587,4.288560,0.1109780,0.40217047,164.7602,10/10.0/2023,2000,g 13.0,4.0
# From MPEC 2021-L04
386P/PANSTARRS,e,15.2358,134.9241,353.0839,4.051366,0.1208654,0.41673868,138.6054,10/10.0/2023,2000,g 14.5,4.0
# From MPEC 2021-J28
387P/Boattini,e,8.9317,259.2556,162.8018,4.796914,0.0938126,0.73702575,140.0999,10/10.0/2023,2000,g 15.0,4.0
# From MPEC 2021-S45
388P/Gibbs,e,23.8925,37.0344,42.3058,5.240616,0.0821544,0.61907315,126.3561,10/10.0/2023,2000,g 13.0,4.0
# From MPEC 2022-OB6
389P/Siding Spring,e,160.0875,218.8867,249.4010,5.633627,0.0737093,0.70473707,101.7084,10/10.0/2023,2000,g 16.0,4.0
# From MPEC 2022-OB6
390P/Gibbs,e,18.5566,152.3054,232.3915,5.812874,0.0703263,0.70737578,91.1523,10/10.0/2023,2000,g 12.0,4.0
# From MPEC 2021-F20
391P/Kowalski,e,21.2655,124.7950,187.2717,4.686559,0.0971455,0.11918702,197.1061,10/10.0/2023,2000,g  8.0,4.0
# From MPEC 2021-J28
392P/LINEAR,e,4.9328,24.8633,71.8792,6.140295,0.0647769,0.68353240,83.3319,10/10.0/2023,2000,g 14.5,4.0
# From MPEC 2023-T65
393P/Spacewatch-Hill,e,16.7878,36.3895,329.0541,4.795142,0.0938646,0.12023966,135.1177,10/10.0/2023,2000,g 11.0,4.0
# From MPEC 2020-KB7
394P/PANSTARRS,e,8.5299,98.1272,54.4136,4.329254,0.1094169,0.36756437,154.3516,10/10.0/2023,2000,g 16.0,2.4
# From MPEC 2023-RF3
395P/Catalina-NEAT,e,3.5344,221.1151,97.2934,7.063924,0.0524971,0.41456626,32.0907,10/10.0/2023,2000,g 10.0,4.0
# From MPEC 2020-KB7
396P/,e,5.4381,136.6369,8.3404,6.802387,0.0555536,0.41607544,83.5829,10/10.0/2023,2000,g 12.0,4.0
# From MPEC 2022-OB6
397P/Lemmon,e,10.9282,8.2280,14.5314,3.830697,0.1314581,0.40521537,158.6544,10/10.0/2023,2000,g 12.0,4.0
# From MPEC 2021-L04
398P/Boattini,e,11.0192,320.1665,127.4754,3.125981,0.1783300,0.58338392,181.3171,10/10.0/2023,2000,g 15.5,4.0
# From MPEC 2022-M88
399P/PANSTARRS,e,13.3227,207.1526,214.3493,3.792557,0.1334461,0.44742243,116.0927,10/10.0/2023,2000,g 14.0,4.0
# From MPEC 2022-ED3
400P/PANSTARRS,e,10.9311,176.4129,238.8273,3.561770,0.1466241,0.40970583,142.4162,10/10.0/2023,2000,g 15.5,2.8
# From MPEC 2022-K19
401P/McNaught,e,12.8023,359.8930,309.4399,5.777898,0.0709658,0.57907145,99.6307,10/10.0/2023,2000,g 12.5,4.0
# From MPEC 2023-M14
402P/LINEAR,e,30.8371,123.0816,326.8028,7.030122,0.0528761,0.43977992,35.1053,10/10.0/2023,2000,g 11.2,4.0
# From MPEC 2021-J28
403P/Catalina,e,12.3256,277.5943,163.8599,5.429415,0.0779066,0.50416192,87.1041,10/10.0/2023,2000,g 12.0,4.0
# From MPEC 2023-J29
404P/Bressi,e,9.7920,260.0414,169.3623,4.737366,0.0955870,0.12765720,357.6004,10/10.0/2023,2000,g 10.0,4.0
# From MPEC 2021-L04
405P/Lemmon,e,9.3718,112.1906,3.2952,3.605279,0.1439779,0.68961241,146.7842,10/10.0/2023,2000,g 17.5,4.0
# From MPEC 2021-F20
406P/Gibbs,e,1.2118,352.4217,11.5239,3.577724,0.1456444,0.54180201,162.9772,10/10.0/2023,2000,g 17.0,4.0
# From MPEC 2022-YN2
407P/PANSTARRS-Fuls,e,4.8748,80.2815,93.5566,3.481843,0.1517017,0.37793716,205.3319,10/10.0/2023,2000,g 14.0,4.0
# From MPEC 2023-J29
408P/Novichonok-Gerke,e,19.3569,189.4412,226.5326,4.742546,0.0954304,0.26873318,35.2654,10/10.0/2023,2000,g 11.0,4.0
# From MPEC 2022-ED3
409P/LONEOS-Hill,e,17.1272,143.6555,15.0696,6.035502,0.0664713,0.70970179,65.4754,10/10.0/2023,2000,g 14.0,4.0
# From MPEC 2022-M21
410P/NEAT-LINEAR,e,9.3901,139.9855,313.1124,6.644924,0.0575399,0.51146412,48.2209,10/10.0/2023,2000,g 12.5,4.0
# From MPEC 2021-J28
411P/Christensen,e,12.3869,77.6520,46.5682,5.811609,0.0703492,0.58114812,69.5397,10/10.0/2023,2000,g 13.5,4.0
# From MPEC 2021-F20
412P/WISE,e,8.9310,0.8457,155.9162,3.110412,0.1796707,0.47893139,186.7841,10/10.0/2023,2000,g 17.0,4.0
# From MPEC 2022-OB6
413P/Larson,e,15.9868,39.2190,186.4615,3.727604,0.1369492,0.42128074,111.1803,10/10.0/2023,2000,g 14.0,4.0
# From MPEC 2021-BE3
414P/STEREO,e,23.4038,257.8120,210.6863,2.793104,0.2111414,0.81196158,208.5215,10/10.0/2023,2000,g 19.0,4.0
# From MPEC 2022-J42
415P/Tenagra,e,31.7935,160.2796,345.9240,4.110718,0.1182572,0.19486819,114.5308,10/10.0/2023,2000,g 12.0,4.0
# From MPEC 2021-L04
416P/Scotti,e,3.3614,355.7844,134.4026,4.008566,0.1228062,0.45469841,118.6982,10/10.0/2023,2000,g 15.5,4.0
# From MPEC 2021-W31
417P/NEOWISE,e,8.1244,127.8534,112.2323,3.326560,0.1624468,0.56315386,145.6849,10/10.0/2023,2000,g 16.5,4.0
# From MPEC 2022-TA0
418P/LINEAR,e,5.7803,277.6923,307.3299,5.095812,0.0856809,0.66411778,61.9291,10/10.0/2023,2000,g 13.0,4.0
# From MPEC 2022-ST7
419P/PANSTARRS,e,2.8029,40.4887,187.6803,3.524692,0.1489438,0.27689594,106.0564,10/10.0/2023,2000,g 12.5,4.0
# From MPEC 2022-OB6
420P/Hill,e,14.4883,173.8712,156.6729,5.516456,0.0760701,0.49587851,38.5859,10/10.0/2023,2000,g 11.5,4.0
# From MPEC 2021-W31
421P/McNaught,e,10.0758,55.3322,259.8971,5.076595,0.0861678,0.67493450,85.1044,10/10.0/2023,2000,g 14.0,4.0
# From MPEC 2022-X67
422P/Christensen,e,39.5851,36.0280,304.9004,6.289130,0.0624911,0.50678056,39.7190,10/10.0/2023,2000,g 11.0,4.0
# From MPEC 2023-FK0
423P/Lemmon,e,8.3463,33.2952,80.4003,6.173537,0.0642544,0.12213012,48.1972,10/10.0/2023,2000,g  8.0,4.0
# From MPEC 2022-CN4
424P/LaSagra,e,8.6831,51.1918,312.5296,4.418292,0.1061262,0.69114522,75.1784,10/10.0/2023,2000,g 17.0,4.0
# From MPEC 2023-BF4
425P/Kowalski,e,16.4212,210.0728,200.8643,6.342630,0.0617021,0.54402881,46.2204,10/10.0/2023,2000,g 12.0,4.0
# From MPEC 2022-P82
426P/PANSTARRS,e,17.7689,280.4207,118.7569,3.190481,0.1729497,0.16191810,4.8270,10/10.0/2023,2000,g 13.5,4.0
# From MPEC 2023-J29
428P/Gibbs,e,8.5085,299.3361,36.8892,3.486530,0.1513959,0.51899793,133.0089,10/10.0/2023,2000,g 15.0,4.0
# From MPEC 2022-H04
429P/LINEAR-Hill,e,7.5192,322.1030,75.5835,3.553608,0.1471295,0.49141126,95.0009,10/10.0/2023,2000,g 15.5,4.0
# From MPEC 2022-L66
430P/Scotti,e,4.4753,54.6740,94.4318,3.104676,0.1801688,0.49966391,121.9466,10/10.0/2023,2000,g 16.5,4.0
# From MPEC 2023-D72
431P/Scotti,e,22.3927,202.8418,199.9330,3.474993,0.1521504,0.47780345,91.8186,10/10.0/2023,2000,g 14.0,4.0
# From MPEC 2021-U31
432P/PANSTARRS,e,10.0683,239.1329,105.3113,3.036336,0.1862856,0.24158077,143.5759,10/10.0/2023,2000,g 17.0,4.0
# From MPEC 2022-OB6
434P/Tenagra,e,6.3371,289.0162,128.1659,4.132289,0.1173324,0.27474758,83.7027,10/10.0/2023,2000,g 13.0,4.0
# From MPEC 2021-W31
435P/PANSTARRS,e,18.8764,98.5422,244.2329,3.019765,0.1878211,0.31827672,151.1270,10/10.0/2023,2000,g 17.0,4.0
# From MPEC 2022-X67
436P/Garradd,e,20.2033,87.1764,282.6737,5.933498,0.0681927,0.66974848,45.7220,10/10.0/2023,2000,g 14.5,4.0
# From MPEC 2023-B57
437P/Lemmon-PANSTARRS,e,3.6888,245.8500,206.8241,4.563679,0.1010954,0.25486545,42.1572,10/10.0/2023,2000,g 13.0,4.0
# From MPEC 2021-W47
438P/Christensen,e,8.2819,260.1259,59.0377,3.849827,0.1304795,0.41491871,167.4493,10/10.0/2023,2000,g 14.5,4.0
# From MPEC 2022-C56
439P/LINEAR,e,7.1136,56.4345,342.0544,3.490176,0.1511587,0.46960925,117.0954,10/10.0/2023,2000,g 13.5,4.0
# From MPEC 2022-WQ9
440P/Kobayashi,e,12.3400,328.8599,183.2881,8.577493,0.0392341,0.76043540,21.9355,10/10.0/2023,2000,g 15.5,4.0
# From MPEC 2022-X67
441P/PANSTARRS,e,2.5744,143.6099,178.8432,4.134061,0.1172570,0.19521425,277.9024,10/10.0/2023,2000,g 13.5,4.0
# From MPEC 2023-J29
442P/McNaught,e,6.0585,32.0114,310.8044,4.968464,0.0889961,0.53298302,37.1439,10/10.0/2023,2000,g 13.5,4.0
# From MPEC 2023-SQ0
443P/PANSTARRS-Christensen,e,19.8884,108.9434,145.1141,4.126064,0.1175981,0.28349260,42.9081,10/10.0/2023,2000,g 13.5,4.0
# From MPEC 2022-YN2
444P/WISE-PANSTARRS,e,22.1544,89.2189,171.1957,3.434646,0.1548393,0.57068823,70.6593,10/10.0/2023,2000,g 17.0,4.0
# From MPEC 2022-YB4
445P/Lemmon-PANSTARRS,e,1.0885,126.5918,213.4800,4.054568,0.1207222,0.41410990,50.5649,10/10.0/2023,2000,g 15.0,4.0
# From MPEC 2022-WQ9
446P/McNaught,e,16.6140,336.3872,344.6953,4.567501,0.1009685,0.64687426,50.3350,10/10.0/2023,2000,g 16.5,4.0
# From MPEC 2022-YB4
447P/Sheppard-Tholen,e,7.4361,302.6471,97.7353,5.635850,0.0736656,0.17891370,30.6954,10/10.0/2023,2000,g 12.0,4.0
# From MPEC 2023-A50
448P/PANSTARRS,e,12.1513,161.7545,218.7363,3.634405,0.1422506,0.41878438,56.6817,10/10.0/2023,2000,g 16.0,4.0
# From MPEC 2022-UE6
449P/Leonard,e,15.4655,242.5411,176.6927,3.600075,0.1442902,0.47980863,151.4638,10/10.0/2023,2000,g 16.0,4.0
# From MPEC 2023-RF3
450P/LONEOS,e,10.5538,124.8256,21.2115,7.973936,0.0437719,0.31141544,307.6965,10/10.0/2023,2000,g  6.5,4.0
# From MPEC 2023-HD1
451P/Christensen,e,26.4798,300.9033,186.7074,6.341851,0.0617135,0.55873276,19.5283,10/10.0/2023,2000,g 15.5,4.0
# From MPEC 2023-J29
452P/Sheppard-Jewitt,e,6.4218,123.6923,37.0394,7.299156,0.0499799,0.42759138,8.3696,10/10.0/2023,2000,g  9.0,4.0
# From MPEC 2023-RF3
453P/WISE-Lemmon,e,27.0682,42.8956,70.8383,5.460195,0.0772488,0.58270699,17.0674,10/10.0/2023,2000,g 14.0,4.0
# From MPEC 2023-CD7
454P/PANSTARRS,e,19.8126,54.5830,20.0476,4.207170,0.1142139,0.36152181,50.3459,10/10.0/2023,2000,g 14.0,4.0
# From MPEC 2022-Y14
455P/PANSTARRS,e,14.1374,146.1853,237.5171,3.153161,0.1760292,0.30498571,39.9127,10/10.0/2023,2000,g 17.0,4.0
# From MPEC 2023-N01
456P/PANSTARRS,e,16.9617,243.1793,234.0636,3.168914,0.1747183,0.11786453,262.6226,10/10.0/2023,2000,g 13.5,4.0
# From MPEC 2023-F99
457P/Lemmon-PANSTARRS,e,5.2254,175.9748,104.4388,2.645971,0.2289953,0.11875348,287.7499,10/10.0/2023,2000,g 15.5,4.0
# From MPEC 2023-HD1
